[{"OBJECT_NAME":"DAQI 1","OBJECT_ID":"2022-039A","EPOCH":"2026-03-14T23:10:11.283168","MEAN_MOTION":14.57661368,"ECCENTRICITY":0.00034955,"INCLINATION":98.1402,"RA_OF_ASC_NODE":14.8097,"ARG_OF_PERICENTER":163.6347,"MEAN_ANOMALY":196.4966,"EPHEMERIS_TYPE":0,"CLASSIFICATION_TYPE":"U","NORAD_CAT_ID":52257,"ELEMENT_SET_NO":999,"REV_AT_EPOCH":20821,"BSTAR":0.00011703991,"MEAN_MOTION_DOT":4.89e-6,"MEAN_MOTION_DDOT":0},{"OBJECT_NAME":"JILIN-1 GAOFEN 3D05","OBJECT_ID":"2022-046C","EPOCH":"2026-03-14T22:15:49.533696","MEAN_MOTION":15.81863565,"ECCENTRICITY":0.00038014,"INCLINATION":97.4784,"RA_OF_ASC_NODE":188.7283,"ARG_OF_PERICENTER":236.1161,"MEAN_ANOMALY":123.9746,"EPHEMERIS_TYPE":0,"CLASSIFICATION_TYPE":"U","NORAD_CAT_ID":52390,"ELEMENT_SET_NO":999,"REV_AT_EPOCH":21575,"BSTAR":0.0013024948,"MEAN_MOTION_DOT":0.00269949,"MEAN_MOTION_DDOT":0},{"OBJECT_NAME":"BRO-6","OBJECT_ID":"2022-047AE","EPOCH":"2026-03-14T22:23:04.691616","MEAN_MOTION":15.44676555,"ECCENTRICITY":0.00052757,"INCLINATION":97.3418,"RA_OF_ASC_NODE":163.5945,"ARG_OF_PERICENTER":63.7084,"MEAN_ANOMALY":296.4706,"EPHEMERIS_TYPE":0,"CLASSIFICATION_TYPE":"U","NORAD_CAT_ID":52422,"ELEMENT_SET_NO":999,"REV_AT_EPOCH":21657,"BSTAR":0.00089965714,"MEAN_MOTION_DOT":0.00042052,"MEAN_MOTION_DDOT":0},{"OBJECT_NAME":"JILIN-1 GAOFEN 3D27","OBJECT_ID":"2022-048B","EPOCH":"2026-03-14T22:41:18.621024","MEAN_MOTION":15.59495475,"ECCENTRICITY":0.00039265,"INCLINATION":97.5632,"RA_OF_ASC_NODE":180.7008,"ARG_OF_PERICENTER":31.9515,"MEAN_ANOMALY":328.1978,"EPHEMERIS_TYPE":0,"CLASSIFICATION_TYPE":"U","NORAD_CAT_ID":52444,"ELEMENT_SET_NO":999,"REV_AT_EPOCH":21472,"BSTAR":0.0010016692,"MEAN_MOTION_DOT":0.00079938,"MEAN_MOTION_DDOT":0},{"OBJECT_NAME":"JILIN-1 GAOFEN 3D28","OBJECT_ID":"2022-048C","EPOCH":"2026-03-14T22:26:44.258208","MEAN_MOTION":15.6081836,"ECCENTRICITY":0.00025993,"INCLINATION":97.5573,"RA_OF_ASC_NODE":180.6218,"ARG_OF_PERICENTER":63.4176,"MEAN_ANOMALY":296.7347,"EPHEMERIS_TYPE":0,"CLASSIFICATION_TYPE":"U","NORAD_CAT_ID":52445,"ELEMENT_SET_NO":999,"REV_AT_EPOCH":21475,"BSTAR":0.001016841,"MEAN_MOTION_DOT":0.00085379,"MEAN_MOTION_DDOT":0},{"OBJECT_NAME":"VIGORIDE-3","OBJECT_ID":"2022-057AE","EPOCH":"2026-03-14T21:42:33.274656","MEAN_MOTION":15.26183858,"ECCENTRICITY":0.00098454,"INCLINATION":97.6434,"RA_OF_ASC_NODE":211.5422,"ARG_OF_PERICENTER":95.7309,"MEAN_ANOMALY":264.5051,"EPHEMERIS_TYPE":0,"CLASSIFICATION_TYPE":"U","NORAD_CAT_ID":52760,"ELEMENT_SET_NO":999,"REV_AT_EPOCH":21077,"BSTAR":0.00032542331,"MEAN_MOTION_DOT":8.35e-5,"MEAN_MOTION_DDOT":0},{"OBJECT_NAME":"ION SCV-006","OBJECT_ID":"2022-057AF","EPOCH":"2026-03-14T21:08:24.671904","MEAN_MOTION":15.43071752,"ECCENTRICITY":0.00194718,"INCLINATION":97.5944,"RA_OF_ASC_NODE":218.2153,"ARG_OF_PERICENTER":96.2517,"MEAN_ANOMALY":264.0949,"EPHEMERIS_TYPE":0,"CLASSIFICATION_TYPE":"U","NORAD_CAT_ID":52761,"ELEMENT_SET_NO":999,"REV_AT_EPOCH":21156,"BSTAR":0.00041209407,"MEAN_MOTION_DOT":0.00018258,"MEAN_MOTION_DDOT":0},{"OBJECT_NAME":"SHERPA-AC1","OBJECT_ID":"2022-057AH","EPOCH":"2026-03-14T09:10:18.249024","MEAN_MOTION":15.34767624,"ECCENTRICITY":0.00089376,"INCLINATION":97.6522,"RA_OF_ASC_NODE":218.8412,"ARG_OF_PERICENTER":73.9867,"MEAN_ANOMALY":286.2359,"EPHEMERIS_TYPE":0,"CLASSIFICATION_TYPE":"U","NORAD_CAT_ID":52763,"ELEMENT_SET_NO":999,"REV_AT_EPOCH":21115,"BSTAR":0.00031542071,"MEAN_MOTION_DOT":0.00010562,"MEAN_MOTION_DDOT":0},{"OBJECT_NAME":"OMNI-L2","OBJECT_ID":"2022-057AR","EPOCH":"2026-03-14T16:24:44.970048","MEAN_MOTION":14.81095727,"ECCENTRICITY":0.00052009,"INCLINATION":97.4805,"RA_OF_ASC_NODE":142.3713,"ARG_OF_PERICENTER":273.9634,"MEAN_ANOMALY":86.0985,"EPHEMERIS_TYPE":0,"CLASSIFICATION_TYPE":"U","NORAD_CAT_ID":52771,"ELEMENT_SET_NO":999,"REV_AT_EPOCH":20640,"BSTAR":0.0002711941,"MEAN_MOTION_DOT":2.058e-5,"MEAN_MOTION_DDOT":0},{"OBJECT_NAME":"STEP CUBE LAB-II","OBJECT_ID":"2022-065D","EPOCH":"2026-03-14T21:41:57.524928","MEAN_MOTION":14.63130752,"ECCENTRICITY":0.00078413,"INCLINATION":98.2053,"RA_OF_ASC_NODE":218.181,"ARG_OF_PERICENTER":327.7462,"MEAN_ANOMALY":32.3259,"EPHEMERIS_TYPE":0,"CLASSIFICATION_TYPE":"U","NORAD_CAT_ID":52897,"ELEMENT_SET_NO":999,"REV_AT_EPOCH":19771,"BSTAR":0.0002110084,"MEAN_MOTION_DOT":1.037e-5,"MEAN_MOTION_DDOT":0},{"OBJECT_NAME":"RANDEV","OBJECT_ID":"2022-065E","EPOCH":"2026-03-14T22:19:06.070368","MEAN_MOTION":14.63509613,"ECCENTRICITY":0.00071613,"INCLINATION":98.2041,"RA_OF_ASC_NODE":218.5163,"ARG_OF_PERICENTER":328.6426,"MEAN_ANOMALY":31.4348,"EPHEMERIS_TYPE":0,"CLASSIFICATION_TYPE":"U","NORAD_CAT_ID":52898,"ELEMENT_SET_NO":999,"REV_AT_EPOCH":19746,"BSTAR":0.0002498137,"MEAN_MOTION_DOT":1.247e-5,"MEAN_MOTION_DDOT":0},{"OBJECT_NAME":"SNUGLITE-II","OBJECT_ID":"2022-065F","EPOCH":"2026-03-14T20:46:20.930592","MEAN_MOTION":14.64145978,"ECCENTRICITY":0.00066294,"INCLINATION":98.2041,"RA_OF_ASC_NODE":218.95,"ARG_OF_PERICENTER":327.1778,"MEAN_ANOMALY":32.9012,"EPHEMERIS_TYPE":0,"CLASSIFICATION_TYPE":"U","NORAD_CAT_ID":52899,"ELEMENT_SET_NO":999,"REV_AT_EPOCH":19719,"BSTAR":0.0002699827,"MEAN_MOTION_DOT":1.371e-5,"MEAN_MOTION_DDOT":0},{"OBJECT_NAME":"MIMAN","OBJECT_ID":"2022-065G","EPOCH":"2026-03-14T22:18:19.670112","MEAN_MOTION":14.6172083,"ECCENTRICITY":0.00068272,"INCLINATION":98.2094,"RA_OF_ASC_NODE":216.9703,"ARG_OF_PERICENTER":328.641,"MEAN_ANOMALY":31.4383,"EPHEMERIS_TYPE":0,"CLASSIFICATION_TYPE":"U","NORAD_CAT_ID":52900,"ELEMENT_SET_NO":999,"REV_AT_EPOCH":19667,"BSTAR":0.00017130493,"MEAN_MOTION_DOT":8.06e-6,"MEAN_MOTION_DDOT":0},{"OBJECT_NAME":"STARLINK-4362","OBJECT_ID":"2022-077A","EPOCH":"2026-03-14T12:12:09.052704","MEAN_MOTION":15.01263702,"ECCENTRICITY":0.00027627,"INCLINATION":97.6015,"RA_OF_ASC_NODE":254.9401,"ARG_OF_PERICENTER":59.8521,"MEAN_ANOMALY":300.2977,"EPHEMERIS_TYPE":0,"CLASSIFICATION_TYPE":"U","NORAD_CAT_ID":53043,"ELEMENT_SET_NO":999,"REV_AT_EPOCH":20164,"BSTAR":9.0433532e-5,"MEAN_MOTION_DOT":1.104e-5,"MEAN_MOTION_DDOT":0},{"OBJECT_NAME":"LARES-2","OBJECT_ID":"2022-080A","EPOCH":"2026-03-06T00:34:32.699712","MEAN_MOTION":6.38965015,"ECCENTRICITY":0.00053097,"INCLINATION":70.1755,"RA_OF_ASC_NODE":340.7064,"ARG_OF_PERICENTER":356.7815,"MEAN_ANOMALY":3.2821,"EPHEMERIS_TYPE":0,"CLASSIFICATION_TYPE":"U","NORAD_CAT_ID":53105,"ELEMENT_SET_NO":999,"REV_AT_EPOCH":8507,"BSTAR":0,"MEAN_MOTION_DOT":-2.8e-7,"MEAN_MOTION_DDOT":0},{"OBJECT_NAME":"GREENCUBE (IO-117)","OBJECT_ID":"2022-080E","EPOCH":"2026-03-14T17:06:42.520032","MEAN_MOTION":6.42583118,"ECCENTRICITY":0.00089903,"INCLINATION":70.1599,"RA_OF_ASC_NODE":331.1096,"ARG_OF_PERICENTER":310.7848,"MEAN_ANOMALY":49.2032,"EPHEMERIS_TYPE":0,"CLASSIFICATION_TYPE":"U","NORAD_CAT_ID":53109,"ELEMENT_SET_NO":999,"REV_AT_EPOCH":8599,"BSTAR":0,"MEAN_MOTION_DOT":-3.0e-8,"MEAN_MOTION_DDOT":0},{"OBJECT_NAME":"STARLINK-4410","OBJECT_ID":"2022-084R","EPOCH":"2026-03-14T21:28:50.155680","MEAN_MOTION":15.01257532,"ECCENTRICITY":0.000178,"INCLINATION":97.602,"RA_OF_ASC_NODE":135.3054,"ARG_OF_PERICENTER":86.041,"MEAN_ANOMALY":274.1018,"EPHEMERIS_TYPE":0,"CLASSIFICATION_TYPE":"U","NORAD_CAT_ID":53204,"ELEMENT_SET_NO":999,"REV_AT_EPOCH":20075,"BSTAR":0.00033595459,"MEAN_MOTION_DOT":4.259e-5,"MEAN_MOTION_DDOT":0},{"OBJECT_NAME":"COSMOS 2558","OBJECT_ID":"2022-089A","EPOCH":"2026-03-12T23:30:29.321856","MEAN_MOTION":15.60200618,"ECCENTRICITY":0.0001214,"INCLINATION":97.2241,"RA_OF_ASC_NODE":173.3172,"ARG_OF_PERICENTER":31.6396,"MEAN_ANOMALY":328.4934,"EPHEMERIS_TYPE":0,"CLASSIFICATION_TYPE":"U","NORAD_CAT_ID":53323,"ELEMENT_SET_NO":999,"REV_AT_EPOCH":20276,"BSTAR":0.0007909,"MEAN_MOTION_DOT":0.00064666,"MEAN_MOTION_DDOT":0},{"OBJECT_NAME":"TECMS","OBJECT_ID":"2022-090A","EPOCH":"2026-03-14T23:20:18.993120","MEAN_MOTION":15.21577854,"ECCENTRICITY":0.00041901,"INCLINATION":97.3229,"RA_OF_ASC_NODE":144.7121,"ARG_OF_PERICENTER":172.8436,"MEAN_ANOMALY":187.2861,"EPHEMERIS_TYPE":0,"CLASSIFICATION_TYPE":"U","NORAD_CAT_ID":53346,"ELEMENT_SET_NO":999,"REV_AT_EPOCH":20048,"BSTAR":0.00023987087,"MEAN_MOTION_DOT":5.343e-5,"MEAN_MOTION_DDOT":0},{"OBJECT_NAME":"DONGPO 04","OBJECT_ID":"2022-098H","EPOCH":"2026-03-14T19:04:53.210784","MEAN_MOTION":15.82404137,"ECCENTRICITY":0.00035059,"INCLINATION":97.5484,"RA_OF_ASC_NODE":205.908,"ARG_OF_PERICENTER":262.9007,"MEAN_ANOMALY":97.1863,"EPHEMERIS_TYPE":0,"CLASSIFICATION_TYPE":"U","NORAD_CAT_ID":53451,"ELEMENT_SET_NO":999,"REV_AT_EPOCH":20038,"BSTAR":0.0012171793,"MEAN_MOTION_DOT":0.00258285,"MEAN_MOTION_DDOT":0},{"OBJECT_NAME":"DONGPO 02","OBJECT_ID":"2022-098J","EPOCH":"2026-03-14T23:32:37.668192","MEAN_MOTION":15.602025,"ECCENTRICITY":0.0002387,"INCLINATION":97.5384,"RA_OF_ASC_NODE":198.2438,"ARG_OF_PERICENTER":289.1563,"MEAN_ANOMALY":70.9434,"EPHEMERIS_TYPE":0,"CLASSIFICATION_TYPE":"U","NORAD_CAT_ID":53452,"ELEMENT_SET_NO":999,"REV_AT_EPOCH":20004,"BSTAR":0.00090399467,"MEAN_MOTION_DOT":0.00074025,"MEAN_MOTION_DDOT":0},{"OBJECT_NAME":"DONGPO 01","OBJECT_ID":"2022-098K","EPOCH":"2026-03-14T22:42:14.882976","MEAN_MOTION":15.59174028,"ECCENTRICITY":0.00012685,"INCLINATION":97.5449,"RA_OF_ASC_NODE":198.8713,"ARG_OF_PERICENTER":214.9326,"MEAN_ANOMALY":145.1847,"EPHEMERIS_TYPE":0,"CLASSIFICATION_TYPE":"U","NORAD_CAT_ID":53453,"ELEMENT_SET_NO":999,"REV_AT_EPOCH":20001,"BSTAR":0.00093149693,"MEAN_MOTION_DOT":0.00073354,"MEAN_MOTION_DDOT":0},{"OBJECT_NAME":"STARLINK-4400","OBJECT_ID":"2022-099D","EPOCH":"2026-03-14T22:09:15.878016","MEAN_MOTION":15.01260329,"ECCENTRICITY":0.00018693,"INCLINATION":97.6025,"RA_OF_ASC_NODE":195.3383,"ARG_OF_PERICENTER":90.0269,"MEAN_ANOMALY":270.1169,"EPHEMERIS_TYPE":0,"CLASSIFICATION_TYPE":"U","NORAD_CAT_ID":53468,"ELEMENT_SET_NO":999,"REV_AT_EPOCH":19676,"BSTAR":3.039e-7,"MEAN_MOTION_DOT":-5.4e-7,"MEAN_MOTION_DDOT":0}]
